38101,COSMOS 2479,2012,1435.72,-1.0,-,6.8,Inactive,0,GSO,Kazakhstan,Russia/USSR,Unknown,Unknown,Proton,1 38101U 12012A   24020.52870932  .00000001  00000+0  00000+0 0  9992,2 38101   6.8072  64.3878 0005047 234.2709 184.2985  1.00298235 43270,1.00298235,0.0005047,GSO
37809,SES-2,2011,1436.13,3200.0,+,0.05,Active,1,GSO,French Guiana,SES,Commercial,Communications,Ariane,1 37809U 11049A   24020.58688573 -.00000191  00000+0  00000+0 0  9990,2 37809   0.0507 282.0165 0002981  25.7939 295.9027  1.00272101 45153,1.00272101,0.0002981,GEO
37816,EUTELSAT 7 WEST A,2011,1436.1,4600.0,+,0.06,Active,1,GSO,Sea Launch Platform,EUTELSAT,Commercial,Communications,Zenit,1 37816U 11051A   24020.38786466 -.00000056  00000+0  00000+0 0  9999,2 37816   0.0647  31.0395 0005442 209.2094  11.3081  1.00271979 45083,1.00271979,0.0005442,GEO
37826,QUETZSAT 1,2011,1436.1,5514.0,+,0.02,Active,1,GSO,Kazakhstan,Mexico,Commercial,Communications,Proton,1 37826U 11054A   24020.44568580 -.00000237  00000+0  00000+0 0  9996,2 37826   0.0501 283.5483 0003224  36.2609 242.9448  1.00270409 41072,1.00270409,0.0003224,GEO
37836,EUTELSAT 16A,2011,1436.1,5400.0,+,0.07,Active,1,GSO,PRC,EUTELSAT,Commercial,Communications,Long March,1 37836U 11057A   24020.24923740  .00000108  00000+0  00000+0 0  9997,2 37836   0.0660  15.9146 0005046 287.4286 281.4785  1.00272119 37153,1.00272119,0.0005046,GEO
37843,VIASAT-1,2011,1436.12,6740.0,P,0.02,Active,1,GSO,Kazakhstan,USA,Commercial,Communications,Proton,1 37843U 11059A   24020.42467465 -.00000019  00000+0  00000+0 0  9996,2 37843   0.0223  56.3868 0002563 244.5197 216.1497  1.00270801 38514,1.00270801,0.0002563,GEO
37933,ASIASAT 7,2011,1436.06,3813.0,+,0.06,Active,1,GSO,Kazakhstan,ASIASAT,Commercial,Communications,Proton,1 37933U 11069A   24020.51368890 -.00000330  00000+0  00000+0 0  9995,2 37933   0.0589 250.8458 0001892  15.4870 143.4383  1.00274046 36049,1.00274046,0.0001892,GEO
37951,LUCH-5A,2011,1436.08,950.0,+,6.5,Active,1,GSO,Kazakhstan,Russia/USSR,Government,Communications,Proton,1 37951U 11074B   24020.64370472 -.00000051  00000+0  00000+0 0  9994,2 37951   6.5013  87.3979 0003157 201.2183 229.4795  1.00272942 44247,1.00272942,0.0003157,GSO
38049,FENGYUN 2F,2012,1436.11,1390.0,+,5.22,Active,1,GSO,PRC,China,Government,Earth Observation,Long March,1 38049U 12002A   24020.05355716 -.00000358  00000+0  00000+0 0  9994,2 38049   5.2235  74.6125 0001472  38.3682 137.3998  1.00270817 44062,1.00270817,0.0001472,GSO
38087,SES-4,2012,1436.1,-1.0,+,0.02,Active,1,GSO,Kazakhstan,SES,Commercial,Communications,Proton,1 38087U 12007A   24020.38499292 -.00000164  00000+0  00000+0 0  9990,2 38087   0.0234  44.8509 0002397 257.8946 293.0976  1.00272014 43414,1.00272014,0.0002397,GEO
38091,BEIDOU-2 G5,2012,1436.04,2300.0,+,2.04,Active,1,GSO,PRC,China,Government/Military,Navigation (Global or Regional Positioning),Long March,1 38091U 12008A   24020.47271188  .00000058  00000+0  00000+0 0  9999,2 38091   2.0424  70.3626 0009279 218.2485  59.6698  1.00275884 43551,1.00275884,0.0009279,GSO
38098,INTELSAT 22 (IS-22),2012,1436.1,6199.0,+,0.02,Active,1,GSO,Kazakhstan,INTELSAT,Commercial,Communications,Proton,1 38098U 12011A   24020.47532255 -.00000054  00000+0  00000+0 0  9992,2 38098   0.0178  57.5502 0002656 239.0062  65.9962  1.00271049 43009,1.00271049,0.0002656,GEO
38107,APSTAR-7,2012,1436.11,5054.0,+,0.03,Active,1,GSO,PRC,China,Commercial,Communications,Long March,1 38107U 12013A   24020.47619278 -.00000097  00000+0  00000+0 0  9993,2 38107   0.0355 105.0977 0003484 205.2655  56.9183  1.00271328 42997,1.00271328,0.0003484,GEO
38254,AEHF-2 (USA 235),2012,1436.11,6169.0,+,4.62,Active,1,GSO,USA,USA,Military,Communications,Atlas,1 38254U 12019A   24020.43648111 -.00000160  00000+0  00000+0 0  9997,2 38254   4.6219  62.0392 0004914 224.1053 256.0954  1.00270727 42040,1.00270727,0.0004914,GSO
38331,JCSAT-13,2012,1436.1,4500.0,+,0.02,Active,1,GSO,French Guiana,Japan,Commercial,Communications,Ariane,1 38331U 12023A   24020.54841043 -.00000352  00000+0  00000+0 0  9992,2 38331   0.0158  75.8596 0002339 218.7091 146.2704  1.00271315 42728,1.00271315,0.0002339,GEO
38332,VINASAT-2,2012,1436.09,2970.0,+,0.03,Active,1,GSO,French Guiana,Vietnam,Government,Communications,Ariane,1 38332U 12023B   24020.53521556 -.00000325  00000+0  00000+0 0  9996,2 38332   0.0252 319.2262 0002675 351.8322 132.8417  1.00271649 37858,1.00271649,0.0002675,GEO
38342,NIMIQ 6,2012,1436.11,4745.0,+,0.04,Active,1,GSO,Kazakhstan,Canada,Commercial,Communications,Breeze,1 38342U 12026A   24020.51442934 -.00000169  00000+0  00000+0 0  9996,2 38342   0.0327 288.4694 0003096  15.0419 269.9413  1.00271039 41612,1.00271039,0.0003096,GEO
38352,CHINASAT 2A (ZX 2A),2012,1436.09,5200.0,+,0.04,Active,1,GSO,PRC,China,Government/Military,Communications,Long March,1 38352U 12028A   24020.53510331 -.00000289  00000+0  00000+0 0  9991,2 38352   0.0363 224.5022 0003469 117.6927  68.0813  1.00271880 42567,1.0027188,0.0003469,GEO
38356,INTELSAT 19 (IS-19),2012,1436.11,5600.0,+,0.02,Active,1,GSO,Sea Launch Platform,INTELSAT,Commercial,Communications,Zenit,1 38356U 12030A   24020.64172421 -.00000053  00000+0  00000+0 0  9993,2 38356   0.0172  65.9666 0003354 236.7430 213.8013  1.00271428 41632,1.00271428,0.0003354,GEO
38551,ECHOSTAR 17,2012,1436.12,6100.0,+,0.02,Active,1,GSO,French Guiana,USA,Commercial,Communications,Ariane,1 38551U 12035A   24020.46397022 -.00000070  00000+0  00000+0 0  9990,2 38551   0.0186  61.7816 0001826 229.6558 247.8004  1.00269379 42257,1.00269379,0.0001826,GEO
38552,METEOSAT-10 (MSG-3),2012,1436.06,2000.0,+,2.63,Active,1,GSO,French Guiana,EUMETSAT,Civil/Government,Earth Observation,Ariane,1 38552U 12035B   24020.24610456 -.00000004  00000+0  00000+0 0  9993,2 38552   2.6353  59.5810 0001203 231.9161 276.2732  1.00274456 42049,1.00274456,0.0001203,GSO
38652,SES-5,2012,1436.1,6007.0,+,0.02,Active,1,GSO,Kazakhstan,SES,Commercial,Communications,Proton,1 38652U 12036A   24020.30466069  .00000039  00000+0  00000+0 0  9998,2 38652   0.0235 354.3659 0002182 297.0855 302.3595  1.00274581 35676,1.00274581,0.0002182,GEO
38740,INTELSAT 20 (IS-20),2012,1436.11,6094.0,+,0.02,Active,1,GSO,French Guiana,INTELSAT,Commercial,Communications,Ariane,1 38740U 12043A   24020.47462637 -.00000020  00000+0  00000+0 0  9990,2 38740   0.0167 112.7927 0002444  76.8483 169.0373  1.00271384 41939,1.00271384,0.0002444,GEO
