OBJECT_NAME,OBJECT_ID,EPOCH,MEAN_MOTION,ECCENTRICITY,INCLINATION,RA_OF_ASC_NODE,ARG_OF_PERICENTER,MEAN_ANOMALY,EPHEMERIS_TYPE,CLASSIFICATION_TYPE,NORAD_CAT_ID,ELEMENT_SET_NO,REV_AT_EPOCH,BSTAR,MEAN_MOTION_DOT,MEAN_MOTION_DDOT
SES-2,2011-049A,2024-01-20T14:05:06.927072,1.00272101,.0002981,0.0507,282.0165,25.7939,295.9027,0,U,37809,999,4518,0,-.191E-5,0
EUTELSAT 7 WEST A,2011-051A,2024-01-20T09:18:31.506624,1.00271979,.0005442,0.0647,31.0395,209.2094,11.3081,0,U,37816,999,4508,0,-.56E-6,0
QUETZSAT 1,2011-054A,2024-01-20T10:41:47.253120,1.00270409,.0003224,0.0501,283.5483,36.2609,242.9448,0,U,37826,999,4107,0,-.237E-5,0
EUTELSAT 16A,2011-057A,2024-01-20T05:58:54.111360,1.00272119,.0005046,0.0660,15.9146,287.4286,281.4785,0,U,37836,999,3715,0,.108E-5,0
VIASAT-1,2011-059A,2024-01-20T10:11:31.889760,1.00270801,.0002563,0.0223,56.3868,244.5197,216.1497,0,U,37843,999,3851,0,-.19E-6,0
ASIASAT 7,2011-069A,2024-01-20T12:19:42.720960,1.00274046,.0001892,0.0589,250.8458,15.4870,143.4383,0,U,37933,999,3604,0,-.33E-5,0
LUCH-5A,2011-074B,2024-01-20T15:26:56.087808,1.00272942,.0003157,6.5013,87.3979,201.2183,229.4795,0,U,37951,999,4424,0,-.51E-6,0
FENGYUN 2F,2012-002A,2024-01-20T01:17:07.338624,1.00270817,.0001472,5.2235,74.6125,38.3682,137.3998,0,U,38049,999,4406,0,-.358E-5,0
SES-4,2012-007A,2024-01-20T09:14:23.388288,1.00272014,.0002397,0.0234,44.8509,257.8946,293.0976,0,U,38087,999,4341,0,-.164E-5,0
BEIDOU-2 G5,2012-008A,2024-01-20T11:20:42.306432,1.00275884,.0009279,2.0424,70.3626,218.2485,59.6698,0,U,38091,999,4355,0,.58E-6,0
INTELSAT 22 (IS-22),2012-011A,2024-01-20T11:24:27.868320,1.00271049,.0002656,0.0178,57.5502,239.0062,65.9962,0,U,38098,999,4300,0,-.54E-6,0
COSMOS 2479,2012-012A,2024-01-20T12:41:20.485248,1.00298235,.0005047,6.8072,64.3878,234.2709,184.2985,0,U,38101,999,4327,0,.1E-7,0
APSTAR-7,2012-013A,2024-01-20T11:25:43.056192,1.00271328,.0003484,0.0355,105.0977,205.2655,56.9183,0,U,38107,999,4299,0,-.97E-6,0
AEHF-2 (USA 235),2012-019A,2024-01-20T10:28:31.967904,1.00270727,.0004914,4.6219,62.0392,224.1053,256.0954,0,U,38254,999,4204,0,-.16E-5,0
JCSAT-13,2012-023A,2024-01-20T13:09:42.661152,1.00271315,.0002339,0.0158,75.8596,218.7091,146.2704,0,U,38331,999,4272,0,-.352E-5,0
VINASAT-2,2012-023B,2024-01-20T12:50:42.624384,1.00271649,.0002675,0.0252,319.2262,351.8322,132.8417,0,U,38332,999,3785,0,-.325E-5,0
NIMIQ 6,2012-026A,2024-01-20T12:20:46.694976,1.00271039,.0003096,0.0327,288.4694,15.0419,269.9413,0,U,38342,999,4161,0,-.169E-5,0
CHINASAT 2A (ZX 2A),2012-028A,2024-01-20T12:50:32.925984,1.00271880,.0003469,0.0363,224.5022,117.6927,68.0813,0,U,38352,999,4256,0,-.289E-5,0
INTELSAT 19 (IS-19),2012-030A,2024-01-20T15:24:04.971744,1.00271428,.0003354,0.0172,65.9666,236.7430,213.8013,0,U,38356,999,4163,0,-.53E-6,0
ECHOSTAR 17,2012-035A,2024-01-20T11:08:07.027008,1.00269379,.0001826,0.0186,61.7816,229.6558,247.8004,0,U,38551,999,4225,0,-.7E-6,0
METEOSAT-10 (MSG-3),2012-035B,2024-01-20T05:54:23.433984,1.00274456,.0001203,2.6353,59.5810,231.9161,276.2732,0,U,38552,999,4204,0,-.4E-7,0
SES-5,2012-036A,2024-01-20T07:18:42.683616,1.00274581,.0002182,0.0235,354.3659,297.0855,302.3595,0,U,38652,999,3567,0,.39E-6,0
INTELSAT 20 (IS-20),2012-043A,2024-01-20T11:23:27.718368,1.00271384,.0002444,0.0167,112.7927,76.8483,169.0373,0,U,38740,999,4193,0,-.2E-6,0
